ONEWEB-0501             
1 54119U 22138G   23241.01864412  .00000045  00000+0  79106-4 0  9999
2 54119  87.9285 148.5820 0001986  95.7856 264.3503 13.19833436 42722
ONEWEB-0502             
1 54120U 22138H   23240.70108214  .00000052  00000+0  97258-4 0  9993
2 54120  87.9283 148.6381 0001851  90.2073 269.9271 13.19725661 41831
ONEWEB-0503             
1 54121U 22138J   23240.69013025 -.00000003  00000+0 -38770-4 0  9999
2 54121  87.9283 148.6487 0001797  84.3170 275.8168 13.19832490 41829
ONEWEB-0504             
1 54122U 22138K   23240.98074021  .00000028  00000+0  36988-4 0  9999
2 54122  87.9237 148.6029 0001599  86.0424 274.0892 13.19832697 42748
ONEWEB-0505             
1 54123U 22138L   23240.82573444 -.00000644  00000+0 -16441-2 0  9992
2 54123  87.9284 148.6198 0001774  85.5270 274.6065 13.19626298 41831
ONEWEB-0506             
1 54124U 22138M   23240.72465759 -.00000048  00000+0 -15290-3 0  9991
2 54124  87.9284 148.6363 0001948  88.2008 271.9348 13.19621868 41818
ONEWEB-0507             
1 54125U 22138N   23240.66948269 -.00000087  00000+0 -24990-3 0  9997
2 54125  87.9233 148.6837 0001953  85.0288 275.1068 13.19722851 41853
ONEWEB-0508             
1 54126U 22138P   23241.04520476  .00000217  00000+0  50998-3 0  9997
2 54126  87.9280 148.5809 0001987  98.8290 261.3067 13.19530335 42756
